[
    {
        "Altitude(m)": 604234.6136548411,
        "Argument of Periapsis(deg)": 0.0,
        "Eccentricity": 0.0,
        "Inclination(deg)": 60.0,
        "Latitude(deg)": 14.117260999063735,
        "Longitude(deg)": 166.72735434046194,
        "Mean Anomaly(deg)": 163.6364,
        "RAAN(deg)": 95.0,
        "Satellite Name": "Test1 428",
        "Satellite Number": 428,
        "Semi-Major Axis(m)": 6980739.136638005,
        "Time(s)": 0
    },
    {
        "Altitude(m)": 604223.4419769795,
        "Argument of Periapsis(deg)": 0.00010418945913296404,
        "Eccentricity": 0.0,
        "Inclination(deg)": 60.0,
        "Latitude(deg)": 13.582396824746834,
        "Longitude(deg)": 167.01426248301593,
        "Mean Anomaly(deg)": 164.25650614546183,
        "RAAN(deg)": 94.99957995086027,
        "Satellite Name": "Test1 428",
        "Satellite Number": 428,
        "Semi-Major Axis(m)": 6980739.136638005,
        "Time(s)": 10
    }
]